# From MPEC 2022-WQ9
P/2022 R5 (PANSTARRS),e,15.2923,115.0423,240.5365,3.069979,0.1832318,0.19471060,211.0200,07/21.0/2025,2000,g 16.0,4.0
# From MPEC 2025-MC0
C/2022 R6 (PANSTARRS),h,08/26.2747/2025,57.0198,150.7848,319.9220,1.005064,6.565518,2000,5.0,4.0
# From MPEC 2023-HD1
P/2022 S1 (PANSTARRS),e,34.5664,136.0895,262.8482,6.408771,0.0607494,0.50758739,64.8205,07/21.0/2025,2000,g 15.1,4.0
# From MPEC 2022-VC5
C/2022 S3 (PANSTARRS),h,01/21.6143/2023,78.4791,157.2462,267.9887,1.000381,0.838833,2000,17.0,4.0
# From MPEC 2025-MC0
C/2022 S4 (Lemmon),e,101.2144,220.1787,268.5624,1412,0.0000186,0.99804438,0.0000,07/18.7875/2024,2000,g  8.0,4.0
# From MPEC 2023-HD1
C/2022 S5 (PANSTARRS),e,136.5096,214.8654,232.7978,20.51957,0.0106036,0.89386749,10.2451,07/21.0/2025,2000,g 16.3,4.0
# From MPEC 2024-O39
C/2022 T1 (Lemmon),h,02/17.4432/2024,22.5419,236.9150,324.2921,1.000386,3.444218,2000,9.0,4.0
# From MPEC 2025-N64
C/2022 U1 (Leonard),h,03/26.1089/2024,128.1478,72.5281,78.6144,1.000271,4.202272,2000,8.5,4.0
# From MPEC 2023-VM5
C/2022 U2 (ATLAS),e,48.2504,304.4010,148.0154,98.37815,0.0010101,0.98648299,0.0000,01/14.2736/2023,2000,g 16.0,4.0
# From MPC182880
C/2022 U3 (Bok),h,07/28.6606/2024,33.6616,272.7880,189.1345,1.000063,4.826906,2000,7.5,4.0
# From MPEC 2023-W26
C/2022 U4 (Bok),e,52.0538,132.9164,88.9836,2887,0.0000064,0.99899635,0.0000,08/03.6458/2023,2000,g 10.5,4.0
# From MPEC 2024-H50
C/2022 V2 (Lemmon),e,98.9026,332.8528,168.9552,36.63993,0.0044440,0.94366034,2.7871,07/21.0/2025,2000,g 12.0,4.0
# From MPEC 2023-CD7
P/2022 W1 (Rankin),e,13.4638,38.8305,17.9345,6.975672,0.0534965,0.51645428,55.5762,07/21.0/2025,2000,g 12.5,4.0
# From MPEC 2024-EF7
C/2022 W2 (ATLAS),e,63.5009,320.4349,123.3177,342.5424,0.0001555,0.99087696,0.0000,03/08.7311/2023,2000,g 11.5,4.0
# From MPEC 2024-C04
C/2022 W3 (Leonard),e,103.5826,132.3061,116.5109,277.8647,0.0002128,0.99497316,0.0000,06/22.8306/2023,2000,g 13.0,4.0
# From MPEC 2023-M14
C/2022 Y1 (Hogan),e,18.8559,285.8755,174.8877,12.61641,0.0219938,0.76532794,21.2526,07/21.0/2025,2000,g  9.0,4.0
# From MPEC 2023-TM6
C/2022 Y2 (Lemmon),e,165.8942,216.3806,105.4919,19.73536,0.0112418,0.87117882,9.5729,07/21.0/2025,2000,g 13.5,4.0
# From MPEC 2024-GJ3
C/2023 A1 (Leonard),e,94.7422,318.2631,159.2659,221.2686,0.0002995,0.99170144,0.0000,03/18.5777/2023,2000,g 14.5,4.0
# From MPEC 2023-J95
C/2023 A2 (SWAN),e,94.7059,94.5099,142.4897,404.7133,0.0001211,0.99766539,0.0000,01/20.3635/2023,2000,g 13.5,4.0
# From MPEC 2025-N86
C/2023 A3 (Tsuchinshan-ATLAS),h,09/27.7438/2024,139.1110,21.5776,308.5121,1.000125,0.391534,2000,6.5,3.2
# From MPEC 2024-F34
P/2023 B1 (PANSTARRS),e,14.5883,78.5602,81.7269,7.066364,0.0524699,0.13099547,42.4444,07/21.0/2025,2000,g  5.5,4.0
# From MPEC 2023-XP6
C/2023 B2 (ATLAS),e,40.7665,218.0871,317.3630,597.2043,0.0000675,0.99708563,0.0000,03/10.6221/2023,2000,g 14.5,4.0
# From MPEC 2023-F81
P/2023 B3 (PANSTARRS),e,9.1564,153.9842,240.3867,4.550526,0.1015341,0.12232437,180.6408,07/21.0/2025,2000,g 10.5,4.0
# From MPEC 2025-N86
C/2023 C2 (ATLAS),e,48.3219,301.0048,357.4452,2371,0.0000085,0.99900088,0.0000,11/16.7784/2024,2000,g  7.0,4.0
# From MPEC 2024-D33
C/2023 E1 (ATLAS),e,38.2818,164.5210,105.9458,19.24503,0.0116742,0.94661111,8.7692,07/21.0/2025,2000,g 15.5,4.0
# From MPEC 2023-N01
C/2023 F1 (PANSTARRS),e,131.6956,25.3067,216.7321,244.2287,0.0002582,0.99299707,0.0000,06/28.0645/2023,2000,g 16.0,4.0
# From MPEC 2025-N86
C/2023 F3 (ATLAS),h,02/02.6201/2025,145.9635,109.4661,265.5330,1.003337,5.190797,2000,6.0,4.0
# From MPEC 2025-N86
C/2023 H1 (PANSTARRS),e,21.7830,292.6468,333.7493,755.0114,0.0000475,0.99410931,0.0000,11/28.6215/2024,2000,g  8.5,4.0
# From MPEC 2024-GJ3
C/2023 H2 (Lemmon),e,113.7464,217.0759,150.6912,247.8433,0.0002526,0.99638742,0.0000,10/29.1578/2023,2000,g 14.0,4.0
# From MPEC 2025-N64
C/2023 H3 (PANSTARRS),e,2.4884,55.0912,193.2545,13.61664,0.0196155,0.61580847,10.1763,07/21.0/2025,2000,g 10.0,4.0
# From MPEC 2023-SQ0
A/2023 H4,e,76.5677,230.8265,65.0164,141.4604,0.0005858,0.98498385,0.0000,08/08.6623/2023,2000,g 18.0,2.0
# From MPEC 2025-N86
C/2023 H5 (Lemmon),h,06/30.2928/2025,97.8553,159.4782,60.1019,1.000464,4.312592,2000,7.0,4.0
# From MPEC 2024-UA9
P/2023 JN16 (Lemmon),e,3.7019,11.8688,353.2421,2.696256,0.2226191,0.14702063,44.9945,07/21.0/2025,2000,g 14.0,4.0
# From MPEC 2024-GJ3
C/2023 K1 (ATLAS),e,137.9976,223.6981,337.4169,613.9776,0.0000648,0.99667947,0.0000,09/07.5526/2023,2000,g 13.0,4.0
# From MPEC 2023-N01
P/2023 M1 (PANSTARRS),e,12.2888,216.8599,79.7003,6.840787,0.0550865,0.58677026,32.2089,07/21.0/2025,2000,g 13.5,4.0
# From MPEC 2024-TD8
P/2023 M2 (PANSTARRS),e,19.7262,83.2516,243.5256,5.582203,0.0747301,0.36995126,54.1253,07/21.0/2025,2000,g 12.5,4.0
# From MPEC 2024-TP3
P/2023 M4 (ATLAS),e,7.5919,296.2827,320.5058,5.446017,0.0775507,0.27893044,92.6308,07/21.0/2025,2000,g  7.5,4.0
# From MPEC 2024-MB8
C/2023 P1 (Nishimura),e,132.4781,66.8298,116.2477,56.37252,0.0023286,0.99602021,0.0000,09/17.6132/2023,2000,g 10.0,4.0
# From MPEC 2025-MC0
C/2023 Q1 (PANSTARRS),h,12/01.1240/2024,36.6452,7.1236,84.4186,1.004944,2.575822,2000,10.0,4.0
# From MPEC 2024-N80
C/2023 Q2 (PANSTARRS),e,104.0620,92.6800,171.6882,343.0597,0.0001551,0.99064589,0.0000,06/23.9339/2024,2000,g 11.5,4.0
# From MPEC 2025-N86
C/2023 R1 (PANSTARRS),h,04/13.4677/2026,149.3168,62.5629,144.2716,1.002263,3.569871,2000,6.0,4.0
# From MPEC 2024-L77
C/2023 R2 (PANSTARRS),h,08/12.1632/2024,30.6897,188.8965,337.3146,1.000287,0.905055,2000,10.5,4.0
# From MPEC 2023-UR6
A/2023 R3,e,12.0801,347.3391,86.9484,722.8836,0.0000507,0.99812029,0.0000,12/18.1777/2023,2000,g 20.0,2.0
# From MPEC 2024-YC7
C/2023 RN3 (ATLAS),e,10.3513,207.0636,130.6190,10.16894,0.0303942,0.49051337,27.7338,07/21.0/2025,2000,g  7.5,4.0
# From MPC184411
C/2023 RS61,e,19.9449,347.0217,119.4190,11.89905,0.0240124,0.32787699,330.4806,07/21.0/2025,2000,g  6.8,4.0
# From MPEC 2025-MC0
P/2023 S1 (PANSTARRS),e,9.1578,317.2903,180.3080,3.843831,0.1307849,0.31845845,19.2016,07/21.0/2025,2000,g 11.5,4.0
# From MPEC 2023-XP6
C/2023 S2 (ATLAS),e,19.6516,229.4534,78.9626,164.1021,0.0004688,0.99352959,0.0000,10/15.2739/2023,2000,g 15.0,4.0
# From MPEC 2024-P23
C/2023 S3 (Lemmon),e,140.4930,233.8220,281.5285,28.41881,0.0065057,0.97082139,0.0000,01/19.6507/2024,2000,g 16.0,4.0
# From MPEC 2024-BE0
P/2023 T1 (PANSTARRS),e,6.6123,249.5761,202.8665,4.225765,0.1134608,0.33321216,48.1230,07/21.0/2025,2000,g 14.0,4.0
# From MPEC 2024-GJ3
C/2023 T2 (Borisov),e,48.5902,317.5261,111.2179,223.7722,0.0002944,0.99107857,0.0000,12/22.7403/2023,2000,g 14.5,4.0
# From MPEC 2025-N86
C/2023 T3 (Fuls),e,27.2213,246.0019,302.8479,865.3166,0.0000387,0.99589940,0.0000,01/25.3579/2025,2000,g  8.5,4.0
# From MPEC 2025-MC0
C/2023 TD22 (Lemmon),e,170.4898,5.5652,32.5419,48.36123,0.0029306,0.95126984,0.9017,07/21.0/2025,2000,g 12.5,4.0
# From MPEC 2025-N86
C/2023 U1 (Fuls),e,108.1461,305.8034,255.6469,2660,0.0000072,0.99813055,0.0000,10/12.9449/2024,2000,g  8.0,4.0
# From MPEC 2025-N86
C/2023 V1 (Lemmon),h,07/13.0460/2025,102.0136,15.0432,103.3156,1.000413,5.092586,2000,8.5,4.0
# From MPC184411
P/2023 V2 (PANSTARRS),e,9.8884,95.4742,330.5165,7.219263,0.0508118,0.57001504,27.1004,07/21.0/2025,2000,g 13.5,4.0
# From MPEC 2024-A43
C/2023 V3 (PANSTARRS),e,40.6952,91.2913,291.8309,12.82554,0.0214581,0.64989039,15.4009,07/21.0/2025,2000,g 11.5,4.0
# From MPEC 2025-MC0
C/2023 V4 (Camarasa-Duszanowicz),h,05/30.3961/2024,67.1248,66.3270,50.8708,1.001174,1.121911,2000,12.0,4.0
# From MPEC 2024-GJ3
C/2023 V5 (Leonard),h,12/13.9114/2023,73.5472,31.5145,56.9692,1.009430,0.846315,2000,21.5,4.0
# From MPEC 2025-A40
P/2023 V6 (PANSTARRS),e,3.9729,189.6224,192.3868,5.292960,0.0809387,0.17544527,77.9628,07/21.0/2025,2000,g 11.5,4.0
# From MPEC 2024-GJ3
C/2023 X1 (Leonard),e,110.5889,136.9897,321.4687,155.6866,0.0005074,0.99389055,0.0000,10/17.9612/2023,2000,g 13.5,3.2
# From MPEC 2025-MC0
C/2023 X2 (Lemmon),h,12/28.2246/2025,76.9816,66.3024,64.7711,1.000051,5.088689,2000,8.5,3.2
# From MPEC 2024-A43
P/2023 X3 (PANSTARRS),e,4.4833,62.0140,40.8723,4.245914,0.1126542,0.28618248,51.2390,07/21.0/2025,2000,g 15.5,4.0
# From MPC184411
C/2023 X4 (Hogan),e,11.5933,28.7698,100.5938,9.922603,0.0315330,0.63129749,13.3046,07/21.0/2025,2000,g 12.0,4.0
# From MPEC 2024-DA2
C/2023 X7 (PANSTARRS),h,05/15.2462/2025,69.0982,119.1982,354.4041,1.002294,4.820357,2000,9.0,4.0
# From MPEC 2024-JU4
P/2023 Y1 (Gibbs),e,6.3839,78.8561,51.4800,3.750419,0.1357014,0.44537531,81.2940,07/21.0/2025,2000,g 17.0,4.0
# From MPEC 2025-A40
P/2023 Y2 (Gibbs),e,6.9926,79.2291,16.9060,3.747392,0.1358659,0.39226999,96.5843,07/21.0/2025,2000,g 15.5,4.0
# From MPEC 2025-MC0
C/2024 A1 (ATLAS),h,06/13.6370/2025,94.4746,112.1348,353.2982,1.002613,3.875272,2000,7.0,4.0
# From MPC182881
C/2024 A2 (ATLAS),e,119.1140,78.1647,295.4909,32.24861,0.0053819,0.94172281,2.4122,07/21.0/2025,2000,g 12.5,4.0
# From MPEC 2025-N86
C/2024 B1 (Lemmon),h,10/07.7232/2024,70.9029,79.1882,66.2181,1.001032,1.633813,2000,13.0,4.0
# From MPEC 2025-A40
C/2024 B2 (Lemmon),e,99.8706,294.3866,130.3330,1813,0.0000128,0.99775053,0.0000,10/05.7880/2023,2000,g 11.5,4.0
# From MPEC 2025-N64
C/2024 C1 (PANSTARRS),e,14.2269,83.8095,94.4905,10.58319,0.0286272,0.58302933,9.2730,07/21.0/2025,2000,g 11.5,4.0
# From MPEC 2024-JU4
C/2024 C2 (PANSTARRS),e,27.2844,66.4460,87.5773,16.22959,0.0150745,0.44598760,1.9850,07/21.0/2025,2000,g  6.0,4.0
# From MPC184412
C/2024 C3 (PANSTARRS),e,22.4542,359.7054,159.6935,11.66891,0.0247263,0.42470493,15.3351,07/21.0/2025,2000,g  9.0,4.0
# From MPEC 2024-Q20
C/2024 C4 (ATLAS),e,79.2829,220.6700,321.4968,83.40195,0.0012940,0.98236922,0.0000,01/30.1905/2024,2000,g 14.5,4.0
# From MPEC 2025-MC0
C/2024 D1 (Lemmon),e,132.4497,179.6608,125.7787,9675,0.0000010,0.99930822,0.0000,12/03.4085/2027,2000,g  7.3,4.0
# From MPEC 2025-N86
C/2024 E1 (Wierzchos),h,01/20.7668/2026,75.2392,108.0804,243.6325,1.000065,0.565999,2000,7.0,4.0
# From MPEC 2024-JU4
